IRIDIUM 123             
1 42804U 17039B   25135.67105211  .00000140  00000+0  42846-4 0  9999
2 42804  86.3985 159.7979 0002486  99.2138 260.9339 14.34217917412972
IRIDIUM 120             
1 42805U 17039C   25136.04185082  .00000152  00000+0  47117-4 0  9995
2 42805  86.3938 128.0276 0002683  89.6367 270.5136 14.34216624414255
IRIDIUM 115             
1 42806U 17039D   25136.06085743  .00000174  00000+0  45836-4 0  9991
2 42806  86.4476 128.0940 0002832 103.2448 256.9069 14.43277651416983
IRIDIUM 118             
1 42807U 17039E   25135.63299601  .00000197  00000+0  63171-4 0  9991
2 42807  86.3984 159.8136 0002237  90.5596 269.5856 14.34217789412972
IRIDIUM 117             
1 42808U 17039F   25135.58225547  .00000146  00000+0  44956-4 0  9998
2 42808  86.3984 159.7963 0002308  99.6992 260.4464 14.34217685412980
IRIDIUM 126             
1 42809U 17039G   25135.67739436  .00000174  00000+0  55041-4 0  9994
2 42809  86.3986 159.8011 0002144  96.9855 263.1585 14.34217466412985
IRIDIUM 124             
1 42810U 17039H   25135.37069902  .00000244  00000+0  66586-4 0  9991
2 42810  86.4465  96.6905 0002662  88.9697 271.1809 14.43281179417738
IRIDIUM 128             
1 42811U 17039J   25135.52859757 -.00000002  00000+0 -76505-5 0  9991
2 42811  86.4020 191.3252 0002638  95.8891 264.2606 14.34217696412983
IRIDIUM 121             
1 42812U 17039K   25135.55688363  .00000205  00000+0  66106-4 0  9996
2 42812  86.3986 159.8765 0002464  89.5298 270.6180 14.34217712412831
IRIDIUM 133             
1 42955U 17061A   25136.11845785  .00000025  00000+0  17979-5 0  9990
2 42955  86.4022 191.1869 0002243  96.1904 263.9548 14.34217767397866
IRIDIUM 100             
1 42956U 17061B   25136.11211536  .00000103  00000+0  29832-4 0  9999
2 42956  86.4016 191.1177 0002434  98.6994 261.4478 14.34217999397884
